NORAD_CAT_ID,OBJECT_NAME,OBJECT_TYPE,EPOCH,MEAN_MOTION,ECCENTRICITY,INCLINATION,RA_OF_ASC_NODE,ARG_OF_PERICENTER,MEAN_ANOMALY,BSTAR,MEAN_MOTION_DOT,MEAN_MOTION_DDOT,TLE_LINE0,TLE_LINE1,TLE_LINE2,SEMIMAJOR_AXIS,PERIOD,APOGEE,PERIGEE,DECAYED
51789.0,STARLINK-3639,PAYLOAD,2023-05-14 03:55:36,15.08842202,0.0001006,53.2164,295.3322,77.7908,282.3197,0.00011028,1.468e-05,0.0,0 STARLINK-3639,1 51789U 22017X   23134.16361164  .00001468  00000-0  11028-3 0  9997,2 51789  53.2164 295.3322 0001006  77.7908 282.3197 15.08842202 68350,6917.874,95.437,540.435,539.043,0.0
51789.0,STARLINK-3639,PAYLOAD,2023-05-14 18:14:04,15.08844172,0.0001083,53.2169,292.6549,77.0374,283.0739,9.5856e-05,1.238e-05,0.0,0 STARLINK-3639,1 51789U 22017X   23134.75977079  .00001238  00000-0  95856-4 0  9997,2 51789  53.2169 292.6549 0001083  77.0374 283.0739 15.08844172 66795,6917.868,95.437,540.482,538.983,0.0
51789.0,STARLINK-3639,PAYLOAD,2023-05-15 03:46:23,15.08840887,0.0001059,53.2163,290.8725,77.2041,282.9069,4.0226e-05,3.52e-06,0.0,0 STARLINK-3639,1 51789U 22017X   23135.15721245  .00000352  00000-0  40226-4 0  9991,2 51789  53.2163 290.8725 0001059  77.2041 282.9069 15.08840887 66851,6917.878,95.437,540.475,539.01,0.0
51789.0,STARLINK-3639,PAYLOAD,2023-05-15 16:29:28,15.08837411,0.0001064,53.217,288.4903,87.6677,272.4437,1.5361e-05,-4.3e-07,0.0,0 STARLINK-3639,1 51789U 22017X   23135.68713542 -.00000043  00000-0  15361-4 0  9990,2 51789  53.2170 288.4903 0001064  87.6677 272.4437 15.08837411 68580,6917.888,95.438,540.489,539.017,0.0
51789.0,STARLINK-3639,PAYLOAD,2023-05-16 13:09:29,15.08838588,9.57e-05,53.2167,284.6255,85.649,274.4612,7.4496e-05,8.98e-06,0.0,0 STARLINK-3639,1 51789U 22017X   23136.54825655  .00000898  00000-0  74496-4 0  9996,2 51789  53.2167 284.6255 0000957  85.6490 274.4612 15.08838588 67060,6917.885,95.438,540.412,539.088,0.0
51789.0,STARLINK-3639,PAYLOAD,2023-05-16 19:31:01,15.08845451,9.77e-05,53.2178,283.4339,95.9851,264.1253,4.1488e-05,3.73e-06,0.0,0 STARLINK-3639,1 51789U 22017X   23136.81321241  .00000373  00000-0  41488-4 0  9991,2 51789  53.2178 283.4339 0000977  95.9851 264.1253 15.08845451 68750,6917.864,95.437,540.405,539.053,0.0
51789.0,STARLINK-3639,PAYLOAD,2023-05-17 16:11:02,15.08838321,9.32e-05,53.2166,279.5699,91.5486,268.5612,0.00011945,1.614e-05,0.0,0 STARLINK-3639,1 51789U 22017X   23137.67433615  .00001614  00000-0  11945-3 0  9998,2 51789  53.2166 279.5699 0000932  91.5486 268.5612 15.08838321 68888,6917.886,95.438,540.395,539.106,0.0
51789.0,STARLINK-3639,PAYLOAD,2023-05-18 12:51:03,15.08838871,8.86e-05,53.2173,275.7067,86.901,273.2083,8.0583e-06,-1.59e-06,0.0,0 STARLINK-3639,1 51789U 22017X   23138.53546047 -.00000159  00000-0  80583-5 0  9998,2 51789  53.2173 275.7067 0000886  86.9010 273.2083 15.08838871 67369,6917.884,95.438,540.362,539.136,0.0
51789.0,STARLINK-3639,PAYLOAD,2023-05-18 20:47:58,15.08845072,9.89e-05,53.2174,274.2191,92.8274,267.2831,6.4496e-05,7.39e-06,0.0,0 STARLINK-3639,1 51789U 22017X   23138.86665448  .00000739  00000-0  64496-4 0  9998,2 51789  53.2174 274.2191 0000989  92.8274 267.2831 15.08845072 67415,6917.865,95.437,540.414,539.046,0.0
51789.0,STARLINK-3639,PAYLOAD,2023-05-19 01:34:09,15.08830951,0.000128,53.2175,273.3246,86.1682,273.9456,-1.6518e-06,-3.14e-06,0.0,0 STARLINK-3639,1 51789U 22017X   23139.06538605 -.00000314  00000-0 -16518-5 0  9999,2 51789  53.2175 273.3246 0001280  86.1682 273.9456 15.08830951 69094,6917.908,95.438,540.659,538.888,0.0
51789.0,STARLINK-3639,PAYLOAD,2023-05-19 12:41:50,15.08838422,8.56e-05,53.2173,271.2428,87.5739,272.5351,4.6437e-05,4.51e-06,0.0,0 STARLINK-3639,1 51789U 22017X   23139.52906050  .00000451  00000-0  46437-4 0  9995,2 51789  53.2173 271.2428 0000856  87.5739 272.5351 15.08838422 69165,6917.885,95.438,540.342,539.158,0.0
51789.0,STARLINK-3639,PAYLOAD,2023-05-20 15:43:23,15.08849578,0.0001084,53.2164,266.1901,82.0478,278.0638,0.00016925,2.408e-05,0.0,0 STARLINK-3639,1 51789U 22017X   23140.65513254  .00002408  00000-0  16925-3 0  9993,2 51789  53.2164 266.1901 0001084  82.0478 278.0638 15.08849578 69330,6917.851,95.437,540.466,538.966,0.0
51789.0,STARLINK-3639,PAYLOAD,2023-05-21 01:15:42,15.08844742,9.12e-05,53.2164,264.406,101.7984,258.3111,1.1901e-05,-9.8e-07,0.0,0 STARLINK-3639,1 51789U 22017X   23141.05257275 -.00000098  00000-0  11901-4 0  9990,2 51789  53.2164 264.4060 0000912 101.7984 258.3111 15.08844742 69398,6917.866,95.437,540.362,539.1,0.0
51789.0,STARLINK-3639,PAYLOAD,2023-05-21 10:48:01,15.08830232,0.0001234,53.2157,262.6222,96.4726,263.6406,-0.00011761,-2.159e-05,0.0,0 STARLINK-3639,1 51789U 22017X   23141.45002272 -.00002159  00000-0 -11761-3 0  9993,2 51789  53.2157 262.6222 0001234  96.4726 263.6406 15.08830232 67801,6917.91,95.438,540.629,538.922,0.0
51789.0,STARLINK-3639,PAYLOAD,2023-05-21 17:09:34,15.08841723,9.5e-05,53.2164,261.4339,103.8377,256.272,1.3395e-05,-7.5e-07,0.0,0 STARLINK-3639,1 51789U 22017X   23141.71497965 -.00000075  00000-0  13395-4 0  9999,2 51789  53.2164 261.4339 0000950 103.8377 256.2720 15.08841723 69495,6917.875,95.437,540.397,539.083,0.0
51789.0,STARLINK-3639,PAYLOAD,2023-05-22 01:06:30,15.08832392,0.0001369,53.2171,259.9428,85.6723,274.4426,2.209e-06,-2.53e-06,0.0,0 STARLINK-3639,1 51789U 22017X   23142.04618772 -.00000253  00000-0  22090-5 0  9998,2 51789  53.2171 259.9428 0001369  85.6723 274.4426 15.08832392 69544,6917.904,95.438,540.716,538.822,0.0
51789.0,STARLINK-3639,PAYLOAD,2023-05-22 13:49:35,15.08841638,9.83e-05,53.2168,257.5671,91.2102,268.9002,8.7256e-05,1.101e-05,0.0,0 STARLINK-3639,1 51789U 22017X   23142.57610053  .00001101  00000-0  87256-4 0  9996,2 51789  53.2168 257.5671 0000983  91.2102 268.9002 15.08841638 67975,6917.875,95.437,540.42,539.06,0.0
51789.0,STARLINK-3639,PAYLOAD,2023-05-22 15:24:58,15.08844517,9.1e-05,53.2171,257.2692,97.5292,262.5803,6.1641e-05,6.94e-06,0.0,0 STARLINK-3639,1 51789U 22017X   23142.64233921  .00000694  00000-0  61641-4 0  9995,2 51789  53.2171 257.2692 0000910  97.5292 262.5803 15.08844517 69631,6917.867,95.437,540.361,539.102,0.0
51789.0,STARLINK-3639,PAYLOAD,2023-05-23 12:04:59,15.08829814,8.98e-05,53.2169,253.4043,96.7513,263.3581,0.00010504,1.384e-05,0.0,0 STARLINK-3639,1 51789U 22017X   23143.50347035  .00001384  00000-0  10504-3 0  9991,2 51789  53.2169 253.4043 0000898  96.7513 263.3581 15.08829814 69767,6917.912,95.438,540.398,539.155,0.0
51789.0,STARLINK-3639,PAYLOAD,2023-05-23 13:40:22,15.08835206,0.000106,53.2171,253.1062,99.6445,260.4666,6.3229e-05,7.19e-06,0.0,0 STARLINK-3639,1 51789U 22017X   23143.56970856  .00000719  00000-0  63229-4 0  9994,2 51789  53.2171 253.1062 0001060  99.6445 260.4666 15.08835206 68129,6917.895,95.438,540.493,539.027,0.0
51789.0,STARLINK-3639,PAYLOAD,2023-05-24 13:31:10,15.08837317,0.0001051,53.2173,248.6464,85.0886,275.0227,4.569e-05,4.39e-06,0.0,0 STARLINK-3639,1 51789U 22017X   23144.56331193  .00000439  00000-0  45690-4 0  9991,2 51789  53.2173 248.6464 0001051  85.0886 275.0227 15.08837317 69923,6917.889,95.438,540.481,539.027,0.0
51789.0,STARLINK-3639,PAYLOAD,2023-05-26 11:37:20,15.08838791,0.0001169,53.2178,240.0212,93.1491,266.9635,5.4375e-05,5.78e-06,0.0,0 STARLINK-3639,1 51789U 22017X   23146.48426952  .00000578  00000-0  54375-4 0  9996,2 51789  53.2178 240.0212 0001169  93.1491 266.9635 15.08838791 70210,6917.884,95.438,540.558,538.94,0.0
51789.0,STARLINK-3639,PAYLOAD,2023-05-27 14:38:53,15.08843245,0.0001193,53.2176,234.9683,97.2911,262.8217,2.5421e-05,1.17e-06,0.0,0 STARLINK-3639,1 51789U 22017X   23147.61034614  .00000117  00000-0  25421-4 0  9991,2 51789  53.2176 234.9683 0001193  97.2911 262.8217 15.08843245 70380,6917.87,95.437,540.561,538.91,0.0
51789.0,STARLINK-3639,PAYLOAD,2023-05-27 22:35:49,15.08837887,0.0001127,53.2169,233.4808,93.8763,266.2358,8.5682e-06,-1.51e-06,0.0,0 STARLINK-3639,1 51789U 22017X   23147.94154972 -.00000151  00000-0  85682-5 0  9992,2 51789  53.2169 233.4808 0001127  93.8763 266.2358 15.08837887 68789,6917.887,95.438,540.531,538.972,0.0
51789.0,STARLINK-3639,PAYLOAD,2023-05-28 14:29:40,15.08842947,0.0001155,53.2172,230.5076,94.9244,265.188,0.00010066,1.315e-05,0.0,0 STARLINK-3639,1 51789U 22017X   23148.60394454  .00001315  00000-0  10066-3 0  9991,2 51789  53.2172 230.5076 0001155  94.9244 265.1880 15.08842947 68887,6917.871,95.437,540.535,538.937,0.0
51789.0,STARLINK-3639,PAYLOAD,2023-05-28 22:26:36,15.08840733,0.0001146,53.2172,229.0206,89.0784,271.0339,7.9681e-05,9.81e-06,0.0,0 STARLINK-3639,1 51789U 22017X   23148.93514646  .00000981  00000-0  79681-4 0  9991,2 51789  53.2172 229.0206 0001146  89.0784 271.0339 15.08840733 70585,6917.878,95.438,540.536,538.95,0.0
51789.0,STARLINK-3639,PAYLOAD,2023-05-29 12:45:04,15.08845841,0.0001153,53.2171,226.3443,88.4657,271.6467,7.2165e-05,8.61e-06,0.0,0 STARLINK-3639,1 51789U 22017X   23149.53130247  .00000861  00000-0  72165-4 0  9996,2 51789  53.2171 226.3443 0001153  88.4657 271.6467 15.08845841 69027,6917.863,95.437,540.525,538.93,0.0
51789.0,STARLINK-3639,PAYLOAD,2023-05-30 04:38:56,15.08829242,0.0001232,53.2169,223.3715,89.787,270.3264,0.00010352,1.36e-05,0.0,0 STARLINK-3639,1 51789U 22017X   23150.19371187  .00001360  00000-0  10352-3 0  9994,2 51789  53.2169 223.3715 0001232  89.7870 270.3264 15.08829242 70774,6917.913,95.438,540.631,538.926,0.0
51789.0,STARLINK-3639,PAYLOAD,2023-05-30 12:35:52,15.08837217,0.0001229,53.217,221.8845,87.0442,273.0691,-3.1064e-05,-7.82e-06,0.0,0 STARLINK-3639,1 51789U 22017X   23150.52491164 -.00000782  00000-0 -31064-4 0  9992,2 51789  53.2170 221.8845 0001229  87.0442 273.0691 15.08837217 69172,6917.889,95.438,540.604,538.904,0.0
51789.0,STARLINK-3639,PAYLOAD,2023-05-30 22:08:11,15.08829326,0.0001202,53.2166,220.1,89.8006,270.3124,9.1856e-05,1.174e-05,0.0,0 STARLINK-3639,1 51789U 22017X   23150.92235376  .00001174  00000-0  91856-4 0  9996,2 51789  53.2166 220.1000 0001202  89.8006 270.3124 15.08829326 69239,6917.913,95.438,540.61,538.946,0.0
